NORAD_CAT_ID,OBJECT_NAME,OBJECT_TYPE,EPOCH,MEAN_MOTION,ECCENTRICITY,INCLINATION,RA_OF_ASC_NODE,ARG_OF_PERICENTER,MEAN_ANOMALY,BSTAR,MEAN_MOTION_DOT,MEAN_MOTION_DDOT,TLE_LINE0,TLE_LINE1,TLE_LINE2,SEMIMAJOR_AXIS,PERIOD,APOGEE,PERIGEE,DECAYED
52361.0,STARLINK-3728,PAYLOAD,2023-02-22 11:50:22,15.08849116,8.51e-05,53.2146,147.4747,114.0672,246.0409,0.0015261,0.00024089,0.0,0 STARLINK-3728,1 52361U 22045AG  23053.49331739  .00024089  00000-0  15261-2 0  9992,2 52361  53.2146 147.4747 0000851 114.0672 246.0409 15.08849116 48032,6917.853,95.437,540.306,539.129,0.0
52361.0,STARLINK-3728,PAYLOAD,2023-02-22 16:36:31,15.08858851,8.54e-05,53.2147,146.5822,113.928,246.1802,0.0018025,0.0002853,0.0,0 STARLINK-3728,1 52361U 22045AG  23053.69203553  .00028530  00000-0  18025-2 0  9992,2 52361  53.2147 146.5822 0000854 113.9280 246.1802 15.08858851 48060,6917.823,95.436,540.279,539.097,0.0
52361.0,STARLINK-3728,PAYLOAD,2023-02-22 22:58:04,15.08831768,0.0001179,53.2146,145.3926,108.267,251.845,0.00015454,2.172e-05,0.0,0 STARLINK-3728,1 52361U 22045AG  23053.95700065  .00002172  00000-0  15454-3 0  9999,2 52361  53.2146 145.3926 0001179 108.2670 251.8450 15.08831768 48107,6917.906,95.438,540.586,538.955,0.0
52361.0,STARLINK-3728,PAYLOAD,2023-02-23 11:41:11,15.08807534,9.97e-05,53.2139,143.0145,129.0779,231.0302,0.0016851,0.00026608,0.0,0 STARLINK-3728,1 52361U 22045AG  23054.48693691  .00026608  00000-0  16851-2 0  9995,2 52361  53.2139 143.0145 0000997 129.0779 231.0302 15.08807534 48183,6917.98,95.44,540.534,539.155,0.0
52361.0,STARLINK-3728,PAYLOAD,2023-02-23 14:51:57,15.08816944,9.25e-05,53.2138,142.4194,116.9236,243.1851,0.001967,0.00031136,0.0,0 STARLINK-3728,1 52361U 22045AG  23054.61941925  .00031136  00000-0  19670-2 0  9990,2 52361  53.2138 142.4194 0000925 116.9236 243.1851 15.08816944 48204,6917.951,95.439,540.456,539.176,0.0
52361.0,STARLINK-3728,PAYLOAD,2023-02-24 11:31:58,15.08870331,0.0001133,53.2149,138.5522,95.18,264.9322,0.0017506,0.00027706,0.0,0 STARLINK-3728,1 52361U 22045AG  23055.48053690  .00027706  00000-0  17506-2 0  9993,2 52361  53.2149 138.5522 0001133  95.1800 264.9322 15.08870331 48332,6917.788,95.436,540.436,538.869,0.0
52361.0,STARLINK-3728,PAYLOAD,2023-02-24 17:53:30,15.08884622,9.95e-05,53.214,137.362,99.7497,260.3608,0.0016209,0.00025634,0.0,0 STARLINK-3728,1 52361U 22045AG  23055.74548928  .00025634  00000-0  16209-2 0  9992,2 52361  53.2140 137.3620 0000995  99.7497 260.3608 15.08884622 48375,6917.744,95.435,540.297,538.921,0.0
52361.0,STARLINK-3728,PAYLOAD,2023-02-24 22:39:40,15.08861095,0.0001179,53.2148,136.4713,83.6499,276.4628,0.00061315,9.489e-05,0.0,0 STARLINK-3728,1 52361U 22045AG  23055.94421378  .00009489  00000-0  61315-3 0  9992,2 52361  53.2148 136.4713 0001179  83.6499 276.4628 15.08861095 48408,6917.816,95.436,540.497,538.865,0.0
52361.0,STARLINK-3728,PAYLOAD,2023-02-25 05:01:12,15.08837502,7.33e-05,53.2145,135.2819,112.1643,247.9427,-0.00025049,-4.272e-05,0.0,0 STARLINK-3728,1 52361U 22045AG  23056.20917299 -.00004272  00000-0 -25049-3 0  9995,2 52361  53.2145 135.2819 0000733 112.1643 247.9427 15.08837502 48443,6917.888,95.438,540.26,539.246,0.0
52361.0,STARLINK-3728,PAYLOAD,2023-02-25 11:22:45,15.08845593,9.82e-05,53.2139,134.0926,88.1687,271.9417,0.001326,0.00020881,0.0,0 STARLINK-3728,1 52361U 22045AG  23056.47413518  .00020881  00000-0  13260-2 0  9992,2 52361  53.2139 134.0926 0000982  88.1687 271.9417 15.08845593 48487,6917.863,95.437,540.408,539.049,0.0
52361.0,STARLINK-3728,PAYLOAD,2023-02-25 22:30:27,15.08859229,0.0001056,53.2133,132.0121,74.1143,285.9965,0.0016846,0.00026638,0.0,0 STARLINK-3728,1 52361U 22045AG  23056.93781473  .00026638  00000-0  16846-2 0  9990,2 52361  53.2133 132.0121 0001056  74.1143 285.9965 15.08859229 48553,6917.822,95.436,540.417,538.956,0.0
52361.0,STARLINK-3728,PAYLOAD,2023-02-26 04:51:59,15.08867027,0.0001284,53.2141,130.8222,77.1025,283.0111,0.0015052,0.00023766,0.0,0 STARLINK-3728,1 52361U 22045AG  23057.20277197  .00023766  00000-0  15052-2 0  9991,2 52361  53.2141 130.8222 0001284  77.1025 283.0111 15.08867027 48596,6917.798,95.436,540.551,538.775,0.0
52361.0,STARLINK-3728,PAYLOAD,2023-02-26 14:24:17,15.08865282,0.0001053,53.2138,129.0366,84.9608,275.1504,0.00077549,0.00012084,0.0,0 STARLINK-3728,1 52361U 22045AG  23057.60020606  .00012084  00000-0  77549-3 0  9997,2 52361  53.2138 129.0366 0001053  84.9608 275.1504 15.08865282 48654,6917.803,95.436,540.397,538.94,0.0
52361.0,STARLINK-3728,PAYLOAD,2023-02-26 15:59:40,15.08868173,0.0001043,53.214,128.7398,81.3938,278.7172,0.00080691,0.00012587,0.0,0 STARLINK-3728,1 52361U 22045AG  23057.66644459  .00012587  00000-0  80691-3 0  9991,2 52361  53.2140 128.7398 0001043  81.3938 278.7172 15.08868173 48667,6917.794,95.436,540.381,538.938,0.0
52361.0,STARLINK-3728,PAYLOAD,2023-02-27 15:50:27,15.08910055,0.0001293,53.2145,124.2784,99.5974,260.5164,0.0030597,0.00048839,0.0,0 STARLINK-3728,1 52361U 22045AG  23058.66003714  .00048839  00000-0  30597-2 0  9993,2 52361  53.2145 124.2784 0001293  99.5974 260.5164 15.08910055 48814,6917.666,95.433,540.426,538.637,0.0
52361.0,STARLINK-3728,PAYLOAD,2023-02-28 04:33:32,15.08845317,0.0001548,53.2153,121.9004,97.9786,262.1382,0.0012533,0.00019717,0.0,0 STARLINK-3728,1 52361U 22045AG  23059.18996490  .00019717  00000-0  12533-2 0  9996,2 52361  53.2153 121.9004 0001548  97.9786 262.1382 15.08845317 48894,6917.864,95.437,540.8,538.658,0.0
52361.0,STARLINK-3728,PAYLOAD,2023-02-28 10:55:05,15.08854876,0.000138,53.2155,120.7117,88.6095,271.5055,0.0014503,0.00022878,0.0,0 STARLINK-3728,1 52361U 22045AG  23059.45492275  .00022878  00000-0  14503-2 0  9999,2 52361  53.2155 120.7117 0001380  88.6095 271.5055 15.08854876 48938,6917.835,95.437,540.655,538.745,0.0
52361.0,STARLINK-3728,PAYLOAD,2023-02-28 20:27:24,15.08826719,0.0001623,53.2157,118.9268,72.3544,287.7625,-0.0002337,-4.004e-05,0.0,0 STARLINK-3728,1 52361U 22045AG  23059.85236685 -.00004004  00000-0 -23370-3 0  9990,2 52361  53.2157 118.9268 0001623  72.3544 287.7625 15.08826719 48998,6917.921,95.438,540.909,538.663,0.0
52361.0,STARLINK-3728,PAYLOAD,2023-03-01 10:45:54,15.08802501,0.0001594,53.2153,116.25,78.5514,281.5657,0.001386,0.00021816,0.0,0 STARLINK-3728,1 52361U 22045AG  23060.44854507  .00021816  00000-0  13860-2 0  9996,2 52361  53.2153 116.2500 0001594  78.5514 281.5657 15.08802501 49087,6917.995,95.44,540.963,538.757,0.0
52361.0,STARLINK-3728,PAYLOAD,2023-03-01 20:18:13,15.08822517,0.0001793,53.215,114.466,68.5988,291.5195,0.0017296,0.00027333,0.0,0 STARLINK-3728,1 52361U 22045AG  23060.84599308  .00027333  00000-0  17296-2 0  9992,2 52361  53.2150 114.4660 0001793  68.5988 291.5195 15.08822517 49140,6917.934,95.439,541.039,538.558,0.0
52361.0,STARLINK-3728,PAYLOAD,2023-03-02 13:47:28,15.08867411,0.0001839,53.2146,111.1951,69.6389,290.4801,0.0019188,0.00030405,0.0,0 STARLINK-3728,1 52361U 22045AG  23061.57462972  .00030405  00000-0  19188-2 0  9995,2 52361  53.2146 111.1951 0001839  69.6389 290.4801 15.08867411 49256,6917.797,95.436,540.934,538.389,0.0
52361.0,STARLINK-3728,PAYLOAD,2023-03-03 08:52:04,15.08877931,0.0001963,53.2143,107.6272,71.5857,288.5348,0.0013749,0.00021684,0.0,0 STARLINK-3728,1 52361U 22045AG  23062.36949788  .00021684  00000-0  13749-2 0  9994,2 52361  53.2143 107.6272 0001963  71.5857 288.5348 15.08877931 49374,6917.764,95.435,540.987,538.271,0.0
52361.0,STARLINK-3728,PAYLOAD,2023-03-03 12:02:50,15.08887121,0.0002027,53.2144,107.0323,70.7346,289.3865,0.0016245,0.00025694,0.0,0 STARLINK-3728,1 52361U 22045AG  23062.50197362  .00025694  00000-0  16245-2 0  9992,2 52361  53.2144 107.0323 0002027  70.7346 289.3865 15.08887121 49399,6917.736,95.435,541.004,538.199,0.0
52361.0,STARLINK-3728,PAYLOAD,2023-03-03 19:59:46,15.08843822,0.0002644,53.2158,105.5437,78.969,281.1599,-0.00037953,-6.325e-05,0.0,0 STARLINK-3728,1 52361U 22045AG  23062.83317787 -.00006325  00000-0 -37953-3 0  9995,2 52361  53.2158 105.5437 0002644  78.9690 281.1599 15.08843822 49440,6917.869,95.437,541.563,537.905,0.0
52361.0,STARLINK-3728,PAYLOAD,2023-03-04 11:53:37,15.08859187,0.000174,53.2158,102.571,79.8099,280.309,0.00069793,0.00010843,0.0,0 STARLINK-3728,1 52361U 22045AG  23063.49557026  .00010843  00000-0  69793-3 0  9995,2 52361  53.2158 102.5710 0001740  79.8099 280.3090 15.08859187 49549,6917.822,95.436,540.89,538.483,0.0
52361.0,STARLINK-3728,PAYLOAD,2023-03-04 19:50:33,15.08832868,8.03e-05,53.2154,101.0847,104.6329,255.4752,0.00036244,5.484e-05,0.0,0 STARLINK-3728,1 52361U 22045AG  23063.82677365  .00005484  00000-0  36244-3 0  9991,2 52361  53.2154 101.0847 0000803 104.6329 255.4752 15.08832868 49592,6917.902,95.438,540.323,539.212,0.0
52361.0,STARLINK-3728,PAYLOAD,2023-03-05 11:44:24,15.08855973,0.0001419,53.2147,98.1104,97.7948,262.3206,0.0023475,0.00037287,0.0,0 STARLINK-3728,1 52361U 22045AG  23064.48917739  .00037287  00000-0  23475-2 0  9993,2 52361  53.2147  98.1104 0001419  97.7948 262.3206 15.08855973 49693,6917.832,95.437,540.678,538.715,0.0
52361.0,STARLINK-3728,PAYLOAD,2023-03-05 19:41:20,15.08850147,0.0001949,53.2153,96.6232,87.3968,272.7247,0.0015949,0.00025193,0.0,0 STARLINK-3728,1 52361U 22045AG  23064.82038161  .00025193  00000-0  15949-2 0  9994,2 52361  53.2153  96.6232 0001949  87.3968 272.7247 15.08850147 49744,6917.849,95.437,541.063,538.366,0.0
52361.0,STARLINK-3728,PAYLOAD,2023-03-06 11:35:11,15.08870047,0.0001688,53.2156,93.6488,92.9765,267.142,0.0015948,0.00025205,0.0,0 STARLINK-3728,1 52361U 22045AG  23065.48277346  .00025205  00000-0  15948-2 0  9990,2 52361  53.2156  93.6488 0001688  92.9765 267.1420 15.08870047 49847,6917.789,95.436,540.821,538.486,0.0
52361.0,STARLINK-3728,PAYLOAD,2023-03-06 13:10:34,15.08872193,0.0001673,53.2154,93.3513,94.3056,265.8127,0.0014231,0.00022453,0.0,0 STARLINK-3728,1 52361U 22045AG  23065.54901167  .00022453  00000-0  14231-2 0  9998,2 52361  53.2154  93.3513 0001673  94.3056 265.8127 15.08872193 49858,6917.782,95.436,540.804,538.49,0.0
